JILIN-1 GAOFEN 3A       
1 44312U 19032C   26068.74542089  .00016264  00000+0  55381-3 0  9993
2 44312  44.9746 183.2861 0002618 111.2900 248.8263 15.30271310372592
STARLINK-31989          
1 59959U 24107Q   26068.39894669 -.00001030  00000+0 -22658-4 0  9999
2 59959  53.1600  66.7609 0001158  87.5405 272.5728 15.30202679 99750
